QIANFAN-103             
1 66045U 25233N   26064.56880127  .00000017  00000+0  71359-5 0  9998
2 66045  88.9936  53.6661 0001908  91.5017 268.6353 13.51006122 19198
QIANFAN-104             
1 66046U 25233P   26064.57270087  .00000028  00000+0  25126-4 0  9990
2 66046  88.9941  53.5631 0002084  85.7990 274.3400 13.51010228 19247
QIANFAN-105             
1 66047U 25233Q   26064.58086799  .00000030  00000+0  27709-4 0  9999
2 66047  88.9954  53.3915 0002046  92.2468 267.8917 13.50981469 19351
QIANFAN-106             
1 66048U 25233R   26064.57698311  .00000026  00000+0  22101-4 0  9994
2 66048  88.9923  53.6374 0002389  85.8592 274.2832 13.51005172 19207
QIANFAN-107             
1 66049U 25233S   26064.58524229  .00000034  00000+0  33833-4 0  9995
2 66049  88.9939  53.6526 0001930  90.6687 269.4686 13.51003225 19204
QIANFAN-108             
1 66050U 25233T   26064.58934676  .00000029  00000+0  26561-4 0  9992
2 66050  88.9932  53.6472 0002336  85.5099 274.6319 13.51004711 19202
