[{"OBJECT_NAME":"QIANFAN-103","OBJECT_ID":"2025-233N","EPOCH":"2026-03-05T13:39:04.429728","MEAN_MOTION":13.51006122,"ECCENTRICITY":0.00019082,"INCLINATION":88.9936,"RA_OF_ASC_NODE":53.6661,"ARG_OF_PERICENTER":91.5017,"MEAN_ANOMALY":268.6353,"EPHEMERIS_TYPE":0,"CLASSIFICATION_TYPE":"U","NORAD_CAT_ID":66045,"ELEMENT_SET_NO":999,"REV_AT_EPOCH":1919,"BSTAR":7.135921e-6,"MEAN_MOTION_DOT":1.7e-7,"MEAN_MOTION_DDOT":0},{"OBJECT_NAME":"QIANFAN-104","OBJECT_ID":"2025-233P","EPOCH":"2026-03-05T13:44:41.355168","MEAN_MOTION":13.51010228,"ECCENTRICITY":0.00020845,"INCLINATION":88.9941,"RA_OF_ASC_NODE":53.5631,"ARG_OF_PERICENTER":85.799,"MEAN_ANOMALY":274.34,"EPHEMERIS_TYPE":0,"CLASSIFICATION_TYPE":"U","NORAD_CAT_ID":66046,"ELEMENT_SET_NO":999,"REV_AT_EPOCH":1924,"BSTAR":2.5126305e-5,"MEAN_MOTION_DOT":2.8e-7,"MEAN_MOTION_DDOT":0},{"OBJECT_NAME":"QIANFAN-105","OBJECT_ID":"2025-233Q","EPOCH":"2026-03-05T13:56:26.994336","MEAN_MOTION":13.50981469,"ECCENTRICITY":0.00020463,"INCLINATION":88.9954,"RA_OF_ASC_NODE":53.3915,"ARG_OF_PERICENTER":92.2468,"MEAN_ANOMALY":267.8917,"EPHEMERIS_TYPE":0,"CLASSIFICATION_TYPE":"U","NORAD_CAT_ID":66047,"ELEMENT_SET_NO":999,"REV_AT_EPOCH":1935,"BSTAR":2.770868e-5,"MEAN_MOTION_DOT":3.0e-7,"MEAN_MOTION_DDOT":0},{"OBJECT_NAME":"QIANFAN-106","OBJECT_ID":"2025-233R","EPOCH":"2026-03-05T13:50:51.340704","MEAN_MOTION":13.51005172,"ECCENTRICITY":0.00023892,"INCLINATION":88.9923,"RA_OF_ASC_NODE":53.6374,"ARG_OF_PERICENTER":85.8592,"MEAN_ANOMALY":274.2832,"EPHEMERIS_TYPE":0,"CLASSIFICATION_TYPE":"U","NORAD_CAT_ID":66048,"ELEMENT_SET_NO":999,"REV_AT_EPOCH":1920,"BSTAR":2.2100548e-5,"MEAN_MOTION_DOT":2.6e-7,"MEAN_MOTION_DDOT":0},{"OBJECT_NAME":"QIANFAN-107","OBJECT_ID":"2025-233S","EPOCH":"2026-03-05T14:02:44.933856","MEAN_MOTION":13.51003225,"ECCENTRICITY":0.00019308,"INCLINATION":88.9939,"RA_OF_ASC_NODE":53.6526,"ARG_OF_PERICENTER":90.6687,"MEAN_ANOMALY":269.4686,"EPHEMERIS_TYPE":0,"CLASSIFICATION_TYPE":"U","NORAD_CAT_ID":66049,"ELEMENT_SET_NO":999,"REV_AT_EPOCH":1920,"BSTAR":3.3832511e-5,"MEAN_MOTION_DOT":3.4e-7,"MEAN_MOTION_DDOT":0},{"OBJECT_NAME":"QIANFAN-108","OBJECT_ID":"2025-233T","EPOCH":"2026-03-05T14:08:39.560064","MEAN_MOTION":13.51004711,"ECCENTRICITY":0.00023368,"INCLINATION":88.9932,"RA_OF_ASC_NODE":53.6472,"ARG_OF_PERICENTER":85.5099,"MEAN_ANOMALY":274.6319,"EPHEMERIS_TYPE":0,"CLASSIFICATION_TYPE":"U","NORAD_CAT_ID":66050,"ELEMENT_SET_NO":999,"REV_AT_EPOCH":1920,"BSTAR":2.6561443e-5,"MEAN_MOTION_DOT":2.9e-7,"MEAN_MOTION_DDOT":0}]
